[{"OBJECT_NAME":"STARLINK-30494","OBJECT_ID":"2023-151G","EPOCH":"2026-03-09T08:39:06.366240","MEAN_MOTION":15.28417441,"ECCENTRICITY":0.00011553,"INCLINATION":43.0027,"RA_OF_ASC_NODE":192.4566,"ARG_OF_PERICENTER":241.5536,"MEAN_ANOMALY":118.52,"EPHEMERIS_TYPE":0,"CLASSIFICATION_TYPE":"U","NORAD_CAT_ID":57970,"ELEMENT_SET_NO":999,"REV_AT_EPOCH":13740,"BSTAR":-3.569111e-5,"MEAN_MOTION_DOT":-1.272e-5,"MEAN_MOTION_DDOT":0},{"OBJECT_NAME":"STARLINK-32199","OBJECT_ID":"2024-133V","EPOCH":"2026-03-09T21:36:04.023648","MEAN_MOTION":15.30188919,"ECCENTRICITY":0.00012337,"INCLINATION":53.1604,"RA_OF_ASC_NODE":296.0019,"ARG_OF_PERICENTER":94.7268,"MEAN_ANOMALY":265.3873,"EPHEMERIS_TYPE":0,"CLASSIFICATION_TYPE":"U","NORAD_CAT_ID":60320,"ELEMENT_SET_NO":999,"REV_AT_EPOCH":9167,"BSTAR":4.2697301e-5,"MEAN_MOTION_DOT":9.05e-6,"MEAN_MOTION_DDOT":0}]
