STARLINK-30494          
1 57970U 23151G   26068.36049035 -.00001272  00000+0 -35691-4 0  9993
2 57970  43.0027 192.4566 0001155 241.5536 118.5200 15.28417441137406
STARLINK-32199          
1 60320U 24133V   26068.90004656  .00000905  00000+0  42697-4 0  9991
2 60320  53.1604 296.0019 0001234  94.7268 265.3873 15.30188919 91677
